{"type": "FeatureCollection", "features": [ {"type": "Feature", "properties": {"norad_id": 36045, "name": "COSMOS 2251 DEB", "group": "cosmos-2251-debris", "lat": 29.829077654021038, "lon": -127.99474652563663, "alt_km": 649.4525373010147, "timestamp": "2025-12-11T10:53:16.287081+00:00", "meta": {"OBJECT_NAME": "COSMOS 2251 DEB", "OBJECT_ID": "1993-036AXG", "EPOCH": "2025-12-09T12:28:41.789568", "MEAN_MOTION": 14.69724058, "ECCENTRICITY": 0.00485126, "INCLINATION": 73.764, "RA_OF_ASC_NODE": 65.432, "ARG_OF_PERICENTER": 80.3147, "MEAN_ANOMALY": 280.3498, "EPHEMERIS_TYPE": 0, "CLASSIFICATION_TYPE": "U", "NORAD_CAT_ID": 36045, "ELEMENT_SET_NO": 999, "REV_AT_EPOCH": 8341, "BSTAR": 0.003329583, "MEAN_MOTION_DOT": 0.00020233, "MEAN_MOTION_DDOT": 0}, "tle": {"line1": "1 36045U 93036AXG 25343.51992812  .00020233  00000+0  33296-2 0  9997", "line2": "2 36045  73.7640  65.4320 0048512  80.3147 280.3498 14.69724058 83416"}}, "geometry": {"type": "Point", "coordinates": [-127.99474652563663, 29.829077654021038]}}, {"type": "Feature", "properties": {"norad_id": 36046, "name": "COSMOS 2251 DEB", "group": "cosmos-2251-debris", "lat": -47.78802313576104, "lon": 117.39488042340511, "alt_km": 720.5703762565918, "timestamp": "2025-12-11T10:53:16.287092+00:00", "meta": {"OBJECT_NAME": "COSMOS 2251 DEB", "OBJECT_ID": "1993-036AXH", "EPOCH": "2025-12-11T03:33:50.177088", "MEAN_MOTION": 14.65250534, "ECCENTRICITY": 0.0055528, "INCLINATION": 74.0169, "RA_OF_ASC_NODE": 279.5637, "ARG_OF_PERICENTER": 65.9642, "MEAN_ANOMALY": 355.1439, "EPHEMERIS_TYPE": 0, "CLASSIFICATION_TYPE": "U", "NORAD_CAT_ID": 36046, "ELEMENT_SET_NO": 999, "REV_AT_EPOCH": 63980, "BSTAR": 0.00096114, "MEAN_MOTION_DOT": 5.271e-05, "MEAN_MOTION_DDOT": 0}, "tle": {"line1": "1 36046U 93036AXH 25345.14849742  .00005271  00000+0  96114-3 0  9996", "line2": "2 36046  74.0169 279.5637 0055528  65.9642 355.1439 14.65250534639805"}}, "geometry": {"type": "Point", "coordinates": [117.39488042340511, -47.78802313576104]}}, {"type": "Feature", "properties": {"norad_id": 36047, "name": "COSMOS 2251 DEB", "group": "cosmos-2251-debris", "lat": 19.24458954604651, "lon": -17.509627714654926, "alt_km": 574.2031286722186, "timestamp": "2025-12-11T10:53:16.287102+00:00", "meta": {"OBJECT_NAME": "COSMOS 2251 DEB", "OBJECT_ID": "1993-036AXJ", "EPOCH": "2025-12-10T17:08:31.046208", "MEAN_MOTION": 14.95793611, "ECCENTRICITY": 0.00081787, "INCLINATION": 74.0361, "RA_OF_ASC_NODE": 338.2472, "ARG_OF_PERICENTER": 4.5379, "MEAN_ANOMALY": 355.5878, "EPHEMERIS_TYPE": 0, "CLASSIFICATION_TYPE": "U", "NORAD_CAT_ID": 36047, "ELEMENT_SET_NO": 999, "REV_AT_EPOCH": 65909, "BSTAR": 0.0029068673, "MEAN_MOTION_DOT": 0.00032578, "MEAN_MOTION_DDOT": 0}, "tle": {"line1": "1 36047U 93036AXJ 25344.71424822  .00032578  00000+0  29069-2 0  9991", "line2": "2 36047  74.0361 338.2472 0008178   4.5379 355.5878 14.95793611659090"}}, "geometry": {"type": "Point", "coordinates": [-17.509627714654926, 19.24458954604651]}}, {"type": "Feature", "properties": {"norad_id": 36048, "name": "COSMOS 2251 DEB", "group": "cosmos-2251-debris", "lat": -36.1578088181027, "lon": 133.70808336430213, "alt_km": 784.7368948609374, "timestamp": "2025-12-11T10:53:16.287112+00:00", "meta": {"OBJECT_NAME": "COSMOS 2251 DEB", "OBJECT_ID": "1993-036AXK", "EPOCH": "2025-12-10T07:51:23.656896", "MEAN_MOTION": 14.3784538, "ECCENTRICITY": 0.0026514, "INCLINATION": 74.0571, "RA_OF_ASC_NODE": 303.7212, "ARG_OF_PERICENTER": 354.2337, "MEAN_ANOMALY": 156.0655, "EPHEMERIS_TYPE": 0, "CLASSIFICATION_TYPE": "U", "NORAD_CAT_ID": 36048, "ELEMENT_SET_NO": 999, "REV_AT_EPOCH": 85467, "BSTAR": 0.00048763, "MEAN_MOTION_DOT": 1.45e-05, "MEAN_MOTION_DDOT": 0}, "tle": {"line1": "1 36048U 93036AXK 25344.32735714  .00001450  00000+0  48763-3 0  9992", "line2": "2 36048  74.0571 303.7212 0026514 354.2337 156.0655 14.37845380854671"}}, "geometry": {"type": "Point", "coordinates": [133.70808336430213, -36.1578088181027]}}, {"type": "Feature", "properties": {"norad_id": 36049, "name": "COSMOS 2251 DEB", "group": "cosmos-2251-debris", "lat": -30.39875334979847, "lon": -48.68254796184438, "alt_km": 684.3046378323588, "timestamp": "2025-12-11T10:53:16.287122+00:00", "meta": {"OBJECT_NAME": "COSMOS 2251 DEB", "OBJECT_ID": "1993-036AXL", "EPOCH": "2025-12-10T15:51:32.776128", "MEAN_MOTION": 14.62096087, "ECCENTRICITY": 0.0010896, "INCLINATION": 74.0301, "RA_OF_ASC_NODE": 123.1637, "ARG_OF_PERICENTER": 209.0948, "MEAN_ANOMALY": 150.9613, "EPHEMERIS_TYPE": 0, "CLASSIFICATION_TYPE": "U", "NORAD_CAT_ID": 36049, "ELEMENT_SET_NO": 999, "REV_AT_EPOCH": 85334, "BSTAR": 0.0024714, "MEAN_MOTION_DOT": 0.00012422, "MEAN_MOTION_DDOT": 0}, "tle": {"line1": "1 36049U 93036AXL 25344.66079602  .00012422  00000+0  24714-2 0  9997", "line2": "2 36049  74.0301 123.1637 0010896 209.0948 150.9613 14.62096087853349"}}, "geometry": {"type": "Point", "coordinates": [-48.68254796184438, -30.39875334979847]}}, {"type": "Feature", "properties": {"norad_id": 36050, "name": "COSMOS 2251 DEB", "group": "cosmos-2251-debris", "lat": 69.54247349932085, "lon": -33.49357215931511, "alt_km": 618.0238625443408, "timestamp": "2025-12-11T10:53:16.287133+00:00", "meta": {"OBJECT_NAME": "COSMOS 2251 DEB", "OBJECT_ID": "1993-036AXM", "EPOCH": "2025-12-10T07:13:56.773056", "MEAN_MOTION": 15.00978663, "ECCENTRICITY": 0.0088905, "INCLINATION": 74.0317, "RA_OF_ASC_NODE": 198.9901, "ARG_OF_PERICENTER": 279.1661, "MEAN_ANOMALY": 79.9477, "EPHEMERIS_TYPE": 0, "CLASSIFICATION_TYPE": "U", "NORAD_CAT_ID": 36050, "ELEMENT_SET_NO": 999, "REV_AT_EPOCH": 66998, "BSTAR": 0.00072759, "MEAN_MOTION_DOT": 0.00010072, "MEAN_MOTION_DDOT": 0}, "tle": {"line1": "1 36050U 93036AXM 25344.30135154  .00010072  00000+0  72759-3 0  9997", "line2": "2 36050  74.0317 198.9901 0088905 279.1661  79.9477 15.00978663669983"}}, "geometry": {"type": "Point", "coordinates": [-33.49357215931511, 69.54247349932085]}}, {"type": "Feature", "properties": {"norad_id": 36053, "name": "COSMOS 2251 DEB", "group": "cosmos-2251-debris", "lat": -31.69800301688193, "lon": -14.552461349004867, "alt_km": 715.3288955502321, "timestamp": "2025-12-11T10:53:16.287168+00:00", "meta": {"OBJECT_NAME": "COSMOS 2251 DEB", "OBJECT_ID": "1993-036AXQ", "EPOCH": "2025-12-11T04:58:23.978208", "MEAN_MOTION": 14.57140562, "ECCENTRICITY": 0.0032722, "INCLINATION": 73.8707, "RA_OF_ASC_NODE": 155.6255, "ARG_OF_PERICENTER": 105.2399, "MEAN_ANOMALY": 255.2386, "EPHEMERIS_TYPE": 0, "CLASSIFICATION_TYPE": "U", "NORAD_CAT_ID": 36053, "ELEMENT_SET_NO": 999, "REV_AT_EPOCH": 87422, "BSTAR": 0.0024734, "MEAN_MOTION_DOT": 0.00011225, "MEAN_MOTION_DDOT": 0}, "tle": {"line1": "1 36053U 93036AXQ 25345.20722197  .00011225  00000+0  24734-2 0  9999", "line2": "2 36053  73.8707 155.6255 0032722 105.2399 255.2386 14.57140562874224"}}, "geometry": {"type": "Point", "coordinates": [-14.552461349004867, -31.69800301688193]}}, {"type": "Feature", "properties": {"norad_id": 36058, "name": "COSMOS 2251 DEB", "group": "cosmos-2251-debris", "lat": -26.614669516435495, "lon": 27.657036386948516, "alt_km": 732.8796495296292, "timestamp": "2025-12-11T10:53:16.287180+00:00", "meta": {"OBJECT_NAME": "COSMOS 2251 DEB", "OBJECT_ID": "1993-036AXV", "EPOCH": "2025-12-09T21:09:28.031616", "MEAN_MOTION": 14.58669067, "ECCENTRICITY": 0.00447805, "INCLINATION": 74.0233, "RA_OF_ASC_NODE": 38.9054, "ARG_OF_PERICENTER": 173.9779, "MEAN_ANOMALY": 186.1934, "EPHEMERIS_TYPE": 0, "CLASSIFICATION_TYPE": "U", "NORAD_CAT_ID": 36058, "ELEMENT_SET_NO": 999, "REV_AT_EPOCH": 66069, "BSTAR": 0.00079291916, "MEAN_MOTION_DOT": 3.72e-05, "MEAN_MOTION_DDOT": 0}, "tle": {"line1": "1 36058U 93036AXV 25343.88157444  .00003720  00000+0  79292-3 0  9994", "line2": "2 36058  74.0233  38.9054 0044780 173.9779 186.1934 14.58669067660699"}}, "geometry": {"type": "Point", "coordinates": [27.657036386948516, -26.614669516435495]}}, {"type": "Feature", "properties": {"norad_id": 36060, "name": "COSMOS 2251 DEB", "group": "cosmos-2251-debris", "lat": -45.66088210570798, "lon": -140.08918121366312, "alt_km": 748.2613264515885, "timestamp": "2025-12-11T10:53:16.287190+00:00", "meta": {"OBJECT_NAME": "COSMOS 2251 DEB", "OBJECT_ID": "1993-036AXX", "EPOCH": "2025-12-09T10:49:25.276800", "MEAN_MOTION": 14.41988994, "ECCENTRICITY": 0.00151666, "INCLINATION": 74.0292, "RA_OF_ASC_NODE": 240.6647, "ARG_OF_PERICENTER": 338.0669, "MEAN_ANOMALY": 21.9836, "EPHEMERIS_TYPE": 0, "CLASSIFICATION_TYPE": "U", "NORAD_CAT_ID": 36060, "ELEMENT_SET_NO": 999, "REV_AT_EPOCH": 84962, "BSTAR": 0.00059597173, "MEAN_MOTION_DOT": 1.931e-05, "MEAN_MOTION_DDOT": 0}, "tle": {"line1": "1 36060U 93036AXX 25343.45098700  .00001931  00000+0  59597-3 0  9997", "line2": "2 36060  74.0292 240.6647 0015166 338.0669  21.9836 14.41988994849629"}}, "geometry": {"type": "Point", "coordinates": [-140.08918121366312, -45.66088210570798]}}, {"type": "Feature", "properties": {"norad_id": 36061, "name": "COSMOS 2251 DEB", "group": "cosmos-2251-debris", "lat": 7.250618282591981, "lon": -179.97181767525095, "alt_km": 777.0371309345219, "timestamp": "2025-12-11T10:53:16.287200+00:00", "meta": {"OBJECT_NAME": "COSMOS 2251 DEB", "OBJECT_ID": "1993-036AXY", "EPOCH": "2025-12-08T08:24:20.190816", "MEAN_MOTION": 14.33698686, "ECCENTRICITY": 0.00368149, "INCLINATION": 74.0243, "RA_OF_ASC_NODE": 7.7948, "ARG_OF_PERICENTER": 97.1574, "MEAN_ANOMALY": 263.3766, "EPHEMERIS_TYPE": 0, "CLASSIFICATION_TYPE": "U", "NORAD_CAT_ID": 36061, "ELEMENT_SET_NO": 999, "REV_AT_EPOCH": 65041, "BSTAR": 0.00050814435, "MEAN_MOTION_DOT": 1.395e-05, "MEAN_MOTION_DDOT": 0}, "tle": {"line1": "1 36061U 93036AXY 25342.35023369  .00001395  00000+0  50814-3 0  9992", "line2": "2 36061  74.0243   7.7948 0036814  97.1574 263.3766 14.33698686650411"}}, "geometry": {"type": "Point", "coordinates": [-179.97181767525095, 7.250618282591981]}}]}